STARLINK-31099          
1 58781U 24011S   26080.35242033  .00002091  00000+0  82668-4 0  9990
2 58781  53.1605 319.6544 0001211  77.8729 282.2407 15.30208291122054
STARLINK-31047          
1 58783U 24011U   26080.58298191  .00010635  00000+0  37066-3 0  9997
2 58783  53.1580 302.8852 0001170  98.8823 261.2311 15.30202347122301
STARLINK-31039          
1 58784U 24011V   26079.95421144  .00001492  00000+0  62476-4 0  9998
2 58784  53.1599 321.4352 0001005  76.6890 283.4223 15.30202720121996
STARLINK-31034          
1 58785U 24011W   26079.81175991  .00000619  00000+0  33039-4 0  9993
2 58785  53.1584 219.6477 0001187  85.1059 275.0077 15.30197722123430
STARLINK-31024          
1 58786U 24011X   26080.35084010  .00001939  00000+0  77567-4 0  9996
2 58786  53.1606 317.5395 0001153  97.9148 262.1984 15.30207893122081
STARLINK-31189          
1 58787U 24012A   26080.41617359  .00001619  00000+0  68321-4 0  9996
2 58787  43.0023  98.6618 0000702 283.2715  76.8059 15.27585782123038
STARLINK-31185          
1 58788U 24012B   26080.47270505 -.00000630  00000+0 -13375-4 0  9994
2 58788  43.0029  99.0835 0001372 276.9114  83.1581 15.27599089123033
STARLINK-31166          
1 58789U 24012C   26080.36749426  .00000561  00000+0  29921-4 0  9991
2 58789  43.0033  99.1510 0001122 287.2920  72.7809 15.27579660123022
STARLINK-31187          
1 58790U 24012D   26080.47146195 -.00002808  00000+0 -92625-4 0  9998
2 58790  43.0033  99.0747 0001357 267.0920  92.9776 15.27548661123036
STARLINK-31162          
1 58791U 24012E   26080.36623992 -.00002470  00000+0 -80313-4 0  9998
2 58791  43.0016  99.1523 0000471 271.8046  88.2752 15.27559517123022
STARLINK-31184          
1 58793U 24012G   26080.42645760  .00002128  00000+0  86807-4 0  9996
2 58793  43.0041  98.7359 0001301 272.9627  87.1076 15.27588105123037
STARLINK-31192          
1 58794U 24012H   26080.46885100  .00002241  00000+0  90926-4 0  9998
2 58794  43.0006  99.0453 0001185 273.1939  86.8777 15.27585474123037
STARLINK-31161          
1 58795U 24012J   26080.42901342  .00002132  00000+0  86951-4 0  9994
2 58795  43.0044  98.7544 0001165 267.6892  92.3826 15.27593402123038
STARLINK-31195          
1 58796U 24012K   26080.47656623 -.00001374  00000+0 -40411-4 0  9999
2 58796  43.0015  99.1120 0001485 273.7929  86.2753 15.27589033123032
STARLINK-31193          
1 58797U 24012L   26080.37263092  .00002611  00000+0  10440-3 0  9994
2 58797  43.0044  99.1895 0001419 271.6621  88.4068 15.27568752123024
STARLINK-31168          
1 58798U 24012M   26080.37648576  .00001011  00000+0  46272-4 0  9995
2 58798  43.0051  99.2156 0001338 264.2695  95.8004 15.27583368123025
