[{"OBJECT_NAME":"STARLINK-31099","OBJECT_ID":"2024-011S","EPOCH":"2026-03-21T08:27:29.116512","MEAN_MOTION":15.30208291,"ECCENTRICITY":0.00012113,"INCLINATION":53.1605,"RA_OF_ASC_NODE":319.6544,"ARG_OF_PERICENTER":77.8729,"MEAN_ANOMALY":282.2407,"EPHEMERIS_TYPE":0,"CLASSIFICATION_TYPE":"U","NORAD_CAT_ID":58781,"ELEMENT_SET_NO":999,"REV_AT_EPOCH":12205,"BSTAR":8.266774e-5,"MEAN_MOTION_DOT":2.091e-5,"MEAN_MOTION_DDOT":0},{"OBJECT_NAME":"STARLINK-31047","OBJECT_ID":"2024-011U","EPOCH":"2026-03-21T13:59:29.637024","MEAN_MOTION":15.30202347,"ECCENTRICITY":0.00011707,"INCLINATION":53.158,"RA_OF_ASC_NODE":302.8852,"ARG_OF_PERICENTER":98.8823,"MEAN_ANOMALY":261.2311,"EPHEMERIS_TYPE":0,"CLASSIFICATION_TYPE":"U","NORAD_CAT_ID":58783,"ELEMENT_SET_NO":999,"REV_AT_EPOCH":12230,"BSTAR":0.00037065987,"MEAN_MOTION_DOT":0.00010635,"MEAN_MOTION_DDOT":0},{"OBJECT_NAME":"STARLINK-31039","OBJECT_ID":"2024-011V","EPOCH":"2026-03-20T22:54:03.868416","MEAN_MOTION":15.3020272,"ECCENTRICITY":0.00010053,"INCLINATION":53.1599,"RA_OF_ASC_NODE":321.4352,"ARG_OF_PERICENTER":76.689,"MEAN_ANOMALY":283.4223,"EPHEMERIS_TYPE":0,"CLASSIFICATION_TYPE":"U","NORAD_CAT_ID":58784,"ELEMENT_SET_NO":999,"REV_AT_EPOCH":12199,"BSTAR":6.2476346e-5,"MEAN_MOTION_DOT":1.492e-5,"MEAN_MOTION_DDOT":0},{"OBJECT_NAME":"STARLINK-31034","OBJECT_ID":"2024-011W","EPOCH":"2026-03-20T19:28:56.056224","MEAN_MOTION":15.30197722,"ECCENTRICITY":0.00011876,"INCLINATION":53.1584,"RA_OF_ASC_NODE":219.6477,"ARG_OF_PERICENTER":85.1059,"MEAN_ANOMALY":275.0077,"EPHEMERIS_TYPE":0,"CLASSIFICATION_TYPE":"U","NORAD_CAT_ID":58785,"ELEMENT_SET_NO":999,"REV_AT_EPOCH":12343,"BSTAR":3.3038714e-5,"MEAN_MOTION_DOT":6.19e-6,"MEAN_MOTION_DDOT":0},{"OBJECT_NAME":"STARLINK-31024","OBJECT_ID":"2024-011X","EPOCH":"2026-03-21T08:25:12.584640","MEAN_MOTION":15.30207893,"ECCENTRICITY":0.0001153,"INCLINATION":53.1606,"RA_OF_ASC_NODE":317.5395,"ARG_OF_PERICENTER":97.9148,"MEAN_ANOMALY":262.1984,"EPHEMERIS_TYPE":0,"CLASSIFICATION_TYPE":"U","NORAD_CAT_ID":58786,"ELEMENT_SET_NO":999,"REV_AT_EPOCH":12208,"BSTAR":7.7567011e-5,"MEAN_MOTION_DOT":1.939e-5,"MEAN_MOTION_DDOT":0},{"OBJECT_NAME":"STARLINK-31189","OBJECT_ID":"2024-012A","EPOCH":"2026-03-21T09:59:17.398176","MEAN_MOTION":15.27585782,"ECCENTRICITY":7.022e-5,"INCLINATION":43.0023,"RA_OF_ASC_NODE":98.6618,"ARG_OF_PERICENTER":283.2715,"MEAN_ANOMALY":76.8059,"EPHEMERIS_TYPE":0,"CLASSIFICATION_TYPE":"U","NORAD_CAT_ID":58787,"ELEMENT_SET_NO":999,"REV_AT_EPOCH":12303,"BSTAR":6.8321231e-5,"MEAN_MOTION_DOT":1.619e-5,"MEAN_MOTION_DDOT":0},{"OBJECT_NAME":"STARLINK-31185","OBJECT_ID":"2024-012B","EPOCH":"2026-03-21T11:20:41.716320","MEAN_MOTION":15.27599089,"ECCENTRICITY":0.00013728,"INCLINATION":43.0029,"RA_OF_ASC_NODE":99.0835,"ARG_OF_PERICENTER":276.9114,"MEAN_ANOMALY":83.1581,"EPHEMERIS_TYPE":0,"CLASSIFICATION_TYPE":"U","NORAD_CAT_ID":58788,"ELEMENT_SET_NO":999,"REV_AT_EPOCH":12303,"BSTAR":-1.3374857e-5,"MEAN_MOTION_DOT":-6.3e-6,"MEAN_MOTION_DDOT":0},{"OBJECT_NAME":"STARLINK-31166","OBJECT_ID":"2024-012C","EPOCH":"2026-03-21T08:49:11.504064","MEAN_MOTION":15.2757966,"ECCENTRICITY":0.00011226,"INCLINATION":43.0033,"RA_OF_ASC_NODE":99.151,"ARG_OF_PERICENTER":287.292,"MEAN_ANOMALY":72.7809,"EPHEMERIS_TYPE":0,"CLASSIFICATION_TYPE":"U","NORAD_CAT_ID":58789,"ELEMENT_SET_NO":999,"REV_AT_EPOCH":12302,"BSTAR":2.9921472e-5,"MEAN_MOTION_DOT":5.61e-6,"MEAN_MOTION_DDOT":0},{"OBJECT_NAME":"STARLINK-31187","OBJECT_ID":"2024-012D","EPOCH":"2026-03-21T11:18:54.312480","MEAN_MOTION":15.27548661,"ECCENTRICITY":0.00013579,"INCLINATION":43.0033,"RA_OF_ASC_NODE":99.0747,"ARG_OF_PERICENTER":267.092,"MEAN_ANOMALY":92.9776,"EPHEMERIS_TYPE":0,"CLASSIFICATION_TYPE":"U","NORAD_CAT_ID":58790,"ELEMENT_SET_NO":999,"REV_AT_EPOCH":12303,"BSTAR":-9.2624829e-5,"MEAN_MOTION_DOT":-2.808e-5,"MEAN_MOTION_DDOT":0},{"OBJECT_NAME":"STARLINK-31162","OBJECT_ID":"2024-012E","EPOCH":"2026-03-21T08:47:23.129088","MEAN_MOTION":15.27559517,"ECCENTRICITY":4.71e-5,"INCLINATION":43.0016,"RA_OF_ASC_NODE":99.1523,"ARG_OF_PERICENTER":271.8046,"MEAN_ANOMALY":88.2752,"EPHEMERIS_TYPE":0,"CLASSIFICATION_TYPE":"U","NORAD_CAT_ID":58791,"ELEMENT_SET_NO":999,"REV_AT_EPOCH":12302,"BSTAR":-8.0313477e-5,"MEAN_MOTION_DOT":-2.47e-5,"MEAN_MOTION_DDOT":0},{"OBJECT_NAME":"STARLINK-31184","OBJECT_ID":"2024-012G","EPOCH":"2026-03-21T10:14:05.936640","MEAN_MOTION":15.27588105,"ECCENTRICITY":0.00013013,"INCLINATION":43.0041,"RA_OF_ASC_NODE":98.7359,"ARG_OF_PERICENTER":272.9627,"MEAN_ANOMALY":87.1076,"EPHEMERIS_TYPE":0,"CLASSIFICATION_TYPE":"U","NORAD_CAT_ID":58793,"ELEMENT_SET_NO":999,"REV_AT_EPOCH":12303,"BSTAR":8.6806756e-5,"MEAN_MOTION_DOT":2.128e-5,"MEAN_MOTION_DDOT":0},{"OBJECT_NAME":"STARLINK-31192","OBJECT_ID":"2024-012H","EPOCH":"2026-03-21T11:15:08.726400","MEAN_MOTION":15.27585474,"ECCENTRICITY":0.00011852,"INCLINATION":43.0006,"RA_OF_ASC_NODE":99.0453,"ARG_OF_PERICENTER":273.1939,"MEAN_ANOMALY":86.8777,"EPHEMERIS_TYPE":0,"CLASSIFICATION_TYPE":"U","NORAD_CAT_ID":58794,"ELEMENT_SET_NO":999,"REV_AT_EPOCH":12303,"BSTAR":9.0925818e-5,"MEAN_MOTION_DOT":2.241e-5,"MEAN_MOTION_DDOT":0},{"OBJECT_NAME":"STARLINK-31161","OBJECT_ID":"2024-012J","EPOCH":"2026-03-21T10:17:46.759488","MEAN_MOTION":15.27593402,"ECCENTRICITY":0.00011651,"INCLINATION":43.0044,"RA_OF_ASC_NODE":98.7544,"ARG_OF_PERICENTER":267.6892,"MEAN_ANOMALY":92.3826,"EPHEMERIS_TYPE":0,"CLASSIFICATION_TYPE":"U","NORAD_CAT_ID":58795,"ELEMENT_SET_NO":999,"REV_AT_EPOCH":12303,"BSTAR":8.6951391e-5,"MEAN_MOTION_DOT":2.132e-5,"MEAN_MOTION_DDOT":0},{"OBJECT_NAME":"STARLINK-31195","OBJECT_ID":"2024-012K","EPOCH":"2026-03-21T11:26:15.322272","MEAN_MOTION":15.27589033,"ECCENTRICITY":0.00014858,"INCLINATION":43.0015,"RA_OF_ASC_NODE":99.112,"ARG_OF_PERICENTER":273.7929,"MEAN_ANOMALY":86.2753,"EPHEMERIS_TYPE":0,"CLASSIFICATION_TYPE":"U","NORAD_CAT_ID":58796,"ELEMENT_SET_NO":999,"REV_AT_EPOCH":12303,"BSTAR":-4.041116e-5,"MEAN_MOTION_DOT":-1.374e-5,"MEAN_MOTION_DDOT":0},{"OBJECT_NAME":"STARLINK-31193","OBJECT_ID":"2024-012L","EPOCH":"2026-03-21T08:56:35.311488","MEAN_MOTION":15.27568752,"ECCENTRICITY":0.00014198,"INCLINATION":43.0044,"RA_OF_ASC_NODE":99.1895,"ARG_OF_PERICENTER":271.6621,"MEAN_ANOMALY":88.4068,"EPHEMERIS_TYPE":0,"CLASSIFICATION_TYPE":"U","NORAD_CAT_ID":58797,"ELEMENT_SET_NO":999,"REV_AT_EPOCH":12302,"BSTAR":0.00010440347,"MEAN_MOTION_DOT":2.611e-5,"MEAN_MOTION_DDOT":0},{"OBJECT_NAME":"STARLINK-31168","OBJECT_ID":"2024-012M","EPOCH":"2026-03-21T09:02:08.369664","MEAN_MOTION":15.27583368,"ECCENTRICITY":0.00013383,"INCLINATION":43.0051,"RA_OF_ASC_NODE":99.2156,"ARG_OF_PERICENTER":264.2695,"MEAN_ANOMALY":95.8004,"EPHEMERIS_TYPE":0,"CLASSIFICATION_TYPE":"U","NORAD_CAT_ID":58798,"ELEMENT_SET_NO":999,"REV_AT_EPOCH":12302,"BSTAR":4.6271648e-5,"MEAN_MOTION_DOT":1.011e-5,"MEAN_MOTION_DDOT":0}]
